NORAD_CAT_ID,OBJECT_NAME,OBJECT_TYPE,EPOCH,MEAN_MOTION,ECCENTRICITY,INCLINATION,RA_OF_ASC_NODE,ARG_OF_PERICENTER,MEAN_ANOMALY,BSTAR,MEAN_MOTION_DOT,MEAN_MOTION_DDOT,TLE_LINE0,TLE_LINE1,TLE_LINE2,SEMIMAJOR_AXIS,PERIOD,APOGEE,PERIGEE,DECAYED
54770.0,TBA - TO BE ASSIGNED,UNKNOWN,2022-12-27 18:00:00,15.77933396,0.0001537,53.2177,256.9954,34.9875,246.5335,-0.0078012,-0.01196855,0.0,0 TBA - TO BE ASSIGNED,1 54770U 22175N   22361.75001157 -.01196855  00000-0 -78012-2 0  9997,2 54770  53.2177 256.9954 0001537  34.9875 246.5335 15.77933396  1307,6714.434,91.259,337.331,335.267,
54770.0,TBA - TO BE ASSIGNED,UNKNOWN,2022-12-27 22:00:00,15.77496639,0.0001696999999999,53.2173,256.1665,32.8958,115.7963,-0.0079273,-0.01193015,0.0,0 TBA - TO BE ASSIGNED,1 54770U 22175N   22361.91667824 -.01193015  00000-0 -79273-2 0  9999,2 54770  53.2173 256.1665 0001697  32.8958 115.7963 15.77496639  1308,6715.6730000000025,91.284,338.67800000000005,336.398,
54770.0,STARLINK-5448,PAYLOAD,2022-12-28 14:00:01,15.7576065,0.0001429,53.2172,252.849,31.7761,302.9924,-0.0085662999999999,-0.01192772,0.0,0 STARLINK-5448,1 54770U 22175N   22362.58334491 -.01192772  00000-0 -85663-2 0  9993,2 54770  53.2172 252.8490 0001429  31.7761 302.9924 15.75760650  1301,6720.605,91.384,343.43,341.509,0.0
54770.0,STARLINK-5448,PAYLOAD,2022-12-28 18:00:00,15.75326972,0.0001641999999999,53.2176,252.0218,40.3516,160.283,-0.0087217,-0.01191598,0.0,0 STARLINK-5448,1 54770U 22175N   22362.75001157 -.01191598  00000-0 -87217-2 0  9994,2 54770  53.2176 252.0218 0001642  40.3516 160.2830 15.75326972  1458,6721.8380000000025,91.41,344.807,342.599,0.0
54770.0,STARLINK-5448,PAYLOAD,2022-12-28 22:00:00,15.74901664,0.0001394,53.2173,251.1961,41.9061,24.3307,-0.0090047999999999,-0.01205493,0.0,0 STARLINK-5448,1 54770U 22175N   22362.91667824 -.01205493  00000-0 -90048-2 0  9997,2 54770  53.2173 251.1961 0001394  41.9061  24.3307 15.74901664  1305,6723.0480000000025,91.434,345.85,343.976,0.0
54770.0,STARLINK-5448,PAYLOAD,2022-12-29 14:00:01,15.73215121,0.0001219,53.2173,247.8917,73.0511,173.0826,-0.00012768,-0.00018511,0.0,0 STARLINK-5448,1 54770U 22175N   22363.58334491 -.00018511  00000-0 -12768-3 0  9998,2 54770  53.2173 247.8917 0001219  73.0511 173.0826 15.73215121  1303,6727.852,91.532,350.537,348.897,0.0
54770.0,STARLINK-5448,PAYLOAD,2022-12-29 16:00:00,15.73201951,0.0001171,53.2175,247.4788,77.3454,281.0281,2.9863e-05,3.573e-05,0.0,0 STARLINK-5448,1 54770U 22175N   22363.66667824  .00003573  00000-0  29863-4 0  9991,2 54770  53.2175 247.4788 0001171  77.3454 281.0281 15.73201951  1601,6727.89,91.533,350.542,348.967,0.0
54770.0,STARLINK-5448,PAYLOAD,2022-12-30 00:00:00,15.73171359,0.0001533,53.2151,245.836,77.9783,9.2675,0.00042875,0.00059909,0.0,0 STARLINK-5448,1 54770U 22175N   22364.00001157  .00059909  00000-0  42875-3 0  9992,2 54770  53.2151 245.8360 0001533  77.9783   9.2675 15.73171359  1656,6727.977,91.535,350.87300000000016,348.81,0.0
54770.0,STARLINK-5448,PAYLOAD,2022-12-30 14:00:01,15.73271339,0.0001296999999999,53.2151,242.9469,89.5752,63.3281,0.00020777,0.00028728,0.0,0 STARLINK-5448,1 54770U 22175N   22364.58334491  .00028728  00000-0  20777-3 0  9997,2 54770  53.2151 242.9469 0001297  89.5752  63.3281 15.73271339  1301,6727.691999999999,91.529,350.42900000000014,348.684,0.0
54770.0,STARLINK-5448,PAYLOAD,2022-12-30 16:00:00,15.73301717,0.0001271,53.2154,242.5346,90.338,174.81099999999995,-0.00016903,-0.00024377,0.0,0 STARLINK-5448,1 54770U 22175N   22364.66667824 -.00024377  00000-0 -16903-3 0  9999,2 54770  53.2154 242.5346 0001271  90.3380 174.8110 15.73301717  1755,6727.605,91.527,350.325,348.615,0.0
54770.0,STARLINK-5448,PAYLOAD,2022-12-31 00:00:00,15.73195933,0.0001588,53.2174,240.8829,92.0084,262.1034,9.9054e-05,0.00013301,0.0,0 STARLINK-5448,1 54770U 22175N   22365.00001157  .00013301  00000-0  99054-4 0  9991,2 54770  53.2174 240.8829 0001588  92.0084 262.1034 15.73195933  1819,6727.906999999997,91.533,350.84,348.70300000000015,0.0
54770.0,STARLINK-5448,PAYLOAD,2022-12-31 08:00:01,15.73246504,0.0001118,53.2154,239.2364,76.9133,6.2125,-0.00042024,-0.00059299,0.0,0 STARLINK-5448,1 54770U 22175N   22365.33334491 -.00059299  00000-0 -42024-3 0  9999,2 54770  53.2154 239.2364 0001118  76.9133   6.2125 15.73246504  1862,6727.763000000001,91.53,350.38,348.875,0.0
54770.0,STARLINK-5448,PAYLOAD,2022-12-31 14:00:01,15.73173659,0.0001216,53.2153,237.9982,87.3764,332.4697,0.00031024,0.00043094,0.0,0 STARLINK-5448,1 54770U 22175N   22365.58334491  .00043094  00000-0  31024-3 0  9998,2 54770  53.2153 237.9982 0001216  87.3764 332.4697 15.73173659  1304,6727.97,91.535,350.653,349.017,0.0
54770.0,STARLINK-5448,PAYLOAD,2022-12-31 22:00:00,15.73192314,0.0001223,53.215,236.3506,77.8077,70.9614,-6.4241e-05,-9.622e-05,0.0,0 STARLINK-5448,1 54770U 22175N   22365.91667824 -.00009622  00000-0 -64241-4 0  9993,2 54770  53.2150 236.3506 0001223  77.8077  70.9614 15.73192314  1307,6727.917,91.534,350.605,348.959,0.0
54770.0,STARLINK-5448,PAYLOAD,2023-01-01 10:00:00,15.73158888,0.0001057,53.215,233.8752,86.0475,16.0806,-0.00021227,-0.0003025,0.0,0 STARLINK-5448,1 54770U 22175N   23001.41667824 -.00030250  00000-0 -21227-3 0  9993,2 54770  53.2150 233.8752 0001057  86.0475  16.0806 15.73158888  2034,6728.012,91.536,350.589,349.166,0.0
54770.0,STARLINK-5448,PAYLOAD,2023-01-01 14:00:01,15.73123503,0.0001087,53.2149,233.0498,90.2458,236.3362,0.00061147,0.00085793,0.0,0 STARLINK-5448,1 54770U 22175N   23001.58334491  .00085793  00000-0  61147-3 0  9997,2 54770  53.2149 233.0498 0001087  90.2458 236.3362 15.73123503  1301,6728.113,91.538,350.71,349.247,0.0
54770.0,STARLINK-5448,PAYLOAD,2023-01-02 00:00:00,15.73163452,0.0001104,53.2152,230.9905,73.8674,93.8014,0.00066842,0.00094097,0.0,0 STARLINK-5448,1 54770U 22175N   23002.00001157  .00094097  00000-0  66842-3 0  9999,2 54770  53.2152 230.9905 0001104  73.8674  93.8014 15.73163452  1308,6727.999,91.535,350.607,349.122,0.0
54770.0,STARLINK-5448,PAYLOAD,2023-01-02 00:48:55,15.73177915,0.0001042999999999,53.2151,230.8209,84.764,275.3499,0.00045622,0.00063834,0.0,0 STARLINK-5448,1 54770U 22175N   23002.03397359  .00063834  00000-0  45622-3 0  9992,2 54770  53.2151 230.8209 0001043  84.7640 275.3499 15.73177915  2134,6727.958000000001,91.534,350.525,349.121,0.0
54770.0,STARLINK-5448,PAYLOAD,2023-01-02 14:32:14,15.73217979,0.0001561999999999,53.2149,227.993,99.1082,261.0115,0.00027496,0.00038174,0.0,0 STARLINK-5448,1 54770U 22175N   23002.60572033  .00038174  00000-0  27496-3 0  9997,2 54770  53.2149 227.9930 0001562  99.1082 261.0115 15.73217979  2227,6727.844,91.532,350.76,348.658,0.0
54770.0,STARLINK-5448,PAYLOAD,2023-01-02 20:38:09,15.73212345,0.0001230999999999,53.2149,226.7349,90.7361,269.3801,0.00023216,0.00032104,0.0,0 STARLINK-5448,1 54770U 22175N   23002.85983379  .00032104  00000-0  23216-3 0  9996,2 54770  53.2149 226.7349 0001231  90.7361 269.3801 15.73212345  2267,6727.86,91.532,350.55300000000005,348.897,0.0
54770.0,STARLINK-5448,PAYLOAD,2023-01-03 17:58:53,15.73218597,0.0001202,53.2142,222.3337,79.729,280.3866,0.000367,0.00051242,0.0,0 STARLINK-5448,1 54770U 22175N   23003.74922524  .00051242  00000-0  36700-3 0  9996,2 54770  53.2142 222.3337 0001202  79.7290 280.3866 15.73218597  2400,6727.842,91.532,350.516,348.898,0.0
54770.0,STARLINK-5448,PAYLOAD,2023-01-04 01:36:17,15.73194142,0.0002171,53.2144,220.7613,66.9512,293.1736,0.00041654,0.00058233,0.0,0 STARLINK-5448,1 54770U 22175N   23004.06687206  .00058233  00000-0  41654-3 0  9998,2 54770  53.2144 220.7613 0002171  66.9512 293.1736 15.73194142  2454,6727.9119999999975,91.534,351.23800000000006,348.316,0.0
54770.0,STARLINK-5448,PAYLOAD,2023-01-04 07:42:12,15.73224318,0.0001458,53.2141,219.5038,86.0594,274.0593,0.00046196,0.00064783,0.0,0 STARLINK-5448,1 54770U 22175N   23004.32097922  .00064783  00000-0  46196-3 0  9990,2 54770  53.2141 219.5038 0001458  86.0594 274.0593 15.73224318  4650,6727.826,91.532,350.672,348.71,0.0
54770.0,STARLINK-5448,PAYLOAD,2023-01-05 06:34:21,15.73290001,9.2e-05,53.2138,214.7877,84.5202,275.5923,0.00019232,0.0002656,0.0,0 STARLINK-5448,1 54770U 22175N   23005.27386002  .00026560  00000-0  19232-3 0  9997,2 54770  53.2138 214.7877 0000920  84.5202 275.5923 15.73290001  2648,6727.639,91.528,350.12300000000016,348.885,0.0
54770.0,STARLINK-5448,PAYLOAD,2023-01-05 14:11:44,15.73280118,7.890000000000001e-05,53.2129,213.2162,75.8917,284.219,0.00015602,0.00021407,0.0,0 STARLINK-5448,1 54770U 22175N   23005.59148893  .00021407  00000-0  15602-3 0  9998,2 54770  53.2129 213.2162 0000789  75.8917 284.2190 15.73280118  2694,6727.667,91.529,350.06300000000016,349.001,0.0
54770.0,STARLINK-5448,PAYLOAD,2023-01-06 06:58:02,15.73161992,0.0001406999999999,53.214,209.761,42.1844,317.9284,0.00026049,0.00036036,0.0,0 STARLINK-5448,1 54770U 22175N   23006.29030424  .00036036  00000-0  26049-3 0  9997,2 54770  53.2140 209.7610 0001407  42.1844 317.9284 15.73161992  2808,6728.004,91.535,350.815,348.922,0.0
54770.0,STARLINK-5448,PAYLOAD,2023-01-06 13:03:58,15.73159798,0.0002563999999999,53.2127,208.5005,79.4956,280.6353,2.1853e-05,2.441e-05,0.0,0 STARLINK-5448,1 54770U 22175N   23006.54443025  .00002441  00000-0  21853-4 0  9992,2 54770  53.2127 208.5005 0002564  79.4956 280.6353 15.73159798  2848,6728.01,91.536,351.6,348.15,0.0
54770.0,STARLINK-5448,PAYLOAD,2023-01-06 22:12:53,15.73164,0.0002702,53.212,206.6169,68.0993,292.0314,0.00022755,0.00031388,0.0,0 STARLINK-5448,1 54770U 22175N   23006.92561394  .00031388  00000-0  22755-3 0  9997,2 54770  53.2120 206.6169 0002702  68.0993 292.0314 15.73164000  5063,6727.998000000001,91.535,351.681,348.045,0.0
54770.0,STARLINK-5448,PAYLOAD,2023-01-07 05:50:16,15.73235458,0.0001773,53.2127,205.0429,60.635,299.4847,0.00042578,0.00059653,0.0,0 STARLINK-5448,1 54770U 22175N   23007.24324531  .00059653  00000-0  42578-3 0  9993,2 54770  53.2127 205.0429 0001773  60.6350 299.4847 15.73235458  2957,6727.794,91.531,350.852,348.466,0.0
